{
  "type": "FeatureCollection",
  "features": [
    {
      "type": "Feature",
      "properties": {
        "norad_id": 59626,
        "name": "LEGION 2",
        "group": "resource",
        "lat": 65.32263008402347,
        "lon": -102.69398045329025,
        "alt_km": 514.1362204636343,
        "timestamp": "2025-12-11T20:41:14.745189+00:00",
        "meta_object_name": "LEGION 2",
        "meta_object_id": "2024-081B",
        "meta_epoch": "2025-12-11T15:26:14.891424",
        "meta_mean_motion": 15.16473854,
        "meta_eccentricity": 0.0005795,
        "meta_inclination": 97.5212,
        "meta_ra_of_asc_node": 60.3778,
        "meta_arg_of_pericenter": 298.0878,
        "meta_mean_anomaly": 61.9769,
        "meta_ephemeris_type": 0,
        "meta_classification_type": "U",
        "meta_norad_cat_id": 59626,
        "meta_element_set_no": 999,
        "meta_rev_at_epoch": 8911,
        "meta_bstar": 0.00040970056,
        "meta_mean_motion_dot": 7.914e-05,
        "meta_mean_motion_ddot": 0,
        "tle_line1": "1 59626U 24081B   25345.64322791  .00007914  00000+0  40970-3 0  9999",
        "tle_line2": "2 59626  97.5212  60.3778 0005795 298.0878  61.9769 15.16473854 89116"
      },
      "geometry": {
        "type": "Point",
        "coordinates": [
          -102.69398045329025,
          65.32263008402347
        ]
      }
    },
    {
      "type": "Feature",
      "properties": {
        "norad_id": 60182,
        "name": "ALOS-4 (DAICHI-4)",
        "group": "resource",
        "lat": -66.26304682766342,
        "lon": -117.74070886870116,
        "alt_km": 639.0541172195008,
        "timestamp": "2025-12-11T20:41:14.745199+00:00",
        "meta_object_name": "ALOS-4 (DAICHI-4)",
        "meta_object_id": "2024-123A",
        "meta_epoch": "2025-12-10T20:50:51.532800",
        "meta_mean_motion": 14.79478132,
        "meta_eccentricity": 0.0001419,
        "meta_inclination": 97.9225,
        "meta_ra_of_asc_node": 79.7424,
        "meta_arg_of_pericenter": 101.2045,
        "meta_mean_anomaly": 258.9326,
        "meta_ephemeris_type": 0,
        "meta_classification_type": "U",
        "meta_norad_cat_id": 60182,
        "meta_element_set_no": 999,
        "meta_rev_at_epoch": 7803,
        "meta_bstar": 0.00039567,
        "meta_mean_motion_dot": 2.905e-05,
        "meta_mean_motion_ddot": 0,
        "tle_line1": "1 60182U 24123A   25344.86865200  .00002905  00000+0  39567-3 0  9990",
        "tle_line2": "2 60182  97.9225  79.7424 0001419 101.2045 258.9326 14.79478132 78033"
      },
      "geometry": {
        "type": "Point",
        "coordinates": [
          -117.74070886870116,
          -66.26304682766342
        ]
      }
    },
    {
      "type": "Feature",
      "properties": {
        "norad_id": 60452,
        "name": "LEGION 3",
        "group": "resource",
        "lat": 16.623306646564508,
        "lon": 117.45597387389391,
        "alt_km": 508.2877548970164,
        "timestamp": "2025-12-11T20:41:14.745209+00:00",
        "meta_object_name": "LEGION 3",
        "meta_object_id": "2024-146A",
        "meta_epoch": "2025-12-11T15:15:22.884192",
        "meta_mean_motion": 15.15742318,
        "meta_eccentricity": 0.00147614,
        "meta_inclination": 45.0019,
        "meta_ra_of_asc_node": 316.0518,
        "meta_arg_of_pericenter": 192.7659,
        "meta_mean_anomaly": 167.2847,
        "meta_ephemeris_type": 0,
        "meta_classification_type": "U",
        "meta_norad_cat_id": 60452,
        "meta_element_set_no": 999,
        "meta_rev_at_epoch": 7356,
        "meta_bstar": 0.00041240792,
        "meta_mean_motion_dot": 7.76e-05,
        "meta_mean_motion_ddot": 0,
        "tle_line1": "1 60452U 24146A   25345.63568153  .00007760  00000+0  41241-3 0  9994",
        "tle_line2": "2 60452  45.0019 316.0518 0014761 192.7659 167.2847 15.15742318 73563"
      },
      "geometry": {
        "type": "Point",
        "coordinates": [
          117.45597387389391,
          16.623306646564508
        ]
      }
    },
    {
      "type": "Feature",
      "properties": {
        "norad_id": 60453,
        "name": "LEGION 4",
        "group": "resource",
        "lat": 18.872397620373736,
        "lon": -153.38985571633094,
        "alt_km": 521.7056478369232,
        "timestamp": "2025-12-11T20:41:14.745220+00:00",
        "meta_object_name": "LEGION 4",
        "meta_object_id": "2024-146B",
        "meta_epoch": "2025-12-11T13:41:22.476192",
        "meta_mean_motion": 15.15804314,
        "meta_eccentricity": 0.00095721,
        "meta_inclination": 45.0386,
        "meta_ra_of_asc_node": 48.1484,
        "meta_arg_of_pericenter": 305.0716,
        "meta_mean_anomaly": 54.9265,
        "meta_ephemeris_type": 0,
        "meta_classification_type": "U",
        "meta_norad_cat_id": 60453,
        "meta_element_set_no": 999,
        "meta_rev_at_epoch": 7240,
        "meta_bstar": 0.00042395412,
        "meta_mean_motion_dot": 7.988e-05,
        "meta_mean_motion_ddot": 0,
        "tle_line1": "1 60453U 24146B   25345.57039903  .00007988  00000+0  42395-3 0  9997",
        "tle_line2": "2 60453  45.0386  48.1484 0009572 305.0716  54.9265 15.15804314 72406"
      },
      "geometry": {
        "type": "Point",
        "coordinates": [
          -153.38985571633094,
          18.872397620373736
        ]
      }
    },
    {
      "type": "Feature",
      "properties": {
        "norad_id": 60989,
        "name": "SENTINEL-2C",
        "group": "resource",
        "lat": 14.8916750350543,
        "lon": -119.34509045928073,
        "alt_km": 789.4878550111753,
        "timestamp": "2025-12-11T20:41:14.745229+00:00",
        "meta_object_name": "SENTINEL-2C",
        "meta_object_id": "2024-157A",
        "meta_epoch": "2025-12-11T14:53:04.995744",
        "meta_mean_motion": 14.30816926,
        "meta_eccentricity": 0.00012008,
        "meta_inclination": 98.5683,
        "meta_ra_of_asc_node": 58.1189,
        "meta_arg_of_pericenter": 97.4951,
        "meta_mean_anomaly": 262.6368,
        "meta_ephemeris_type": 0,
        "meta_classification_type": "U",
        "meta_norad_cat_id": 60989,
        "meta_element_set_no": 999,
        "meta_rev_at_epoch": 6616,
        "meta_bstar": 0.00010782215,
        "meta_mean_motion_dot": 2.39e-06,
        "meta_mean_motion_ddot": 0,
        "tle_line1": "1 60989U 24157A   25345.62019671  .00000239  00000+0  10782-3 0  9996",
        "tle_line2": "2 60989  98.5683  58.1189 0001200  97.4951 262.6368 14.30816926 66165"
      },
      "geometry": {
        "type": "Point",
        "coordinates": [
          -119.34509045928073,
          14.8916750350543
        ]
      }
    },
    {
      "type": "Feature",
      "properties": {
        "norad_id": 61735,
        "name": "IONOSFERA-M 1",
        "group": "resource",
        "lat": 78.95533830216488,
        "lon": 87.73113320718437,
        "alt_km": 808.6123570502778,
        "timestamp": "2025-12-11T20:41:14.745239+00:00",
        "meta_object_name": "IONOSFERA-M 1",
        "meta_object_id": "2024-199A",
        "meta_epoch": "2025-12-11T15:10:14.851776",
        "meta_mean_motion": 14.22714096,
        "meta_eccentricity": 0.00010156,
        "meta_inclination": 98.7404,
        "meta_ra_of_asc_node": 215.4888,
        "meta_arg_of_pericenter": 23.8225,
        "meta_mean_anomaly": 336.3,
        "meta_ephemeris_type": 0,
        "meta_classification_type": "U",
        "meta_norad_cat_id": 61735,
        "meta_element_set_no": 999,
        "meta_rev_at_epoch": 10103,
        "meta_bstar": 9.2479734e-05,
        "meta_mean_motion_dot": 1.63e-06,
        "meta_mean_motion_ddot": 0,
        "tle_line1": "1 61735U 24199A   25345.63211634  .00000163  00000+0  92480-4 0  9998",
        "tle_line2": "2 61735  98.7404 215.4888 0001015  23.8225 336.3000 14.22714096101037"
      },
      "geometry": {
        "type": "Point",
        "coordinates": [
          87.73113320718437,
          78.95533830216488
        ]
      }
    },
    {
      "type": "Feature",
      "properties": {
        "norad_id": 61736,
        "name": "IONOSFERA-M 2",
        "group": "resource",
        "lat": -77.19463930360408,
        "lon": -101.77394854521935,
        "alt_km": 824.6239871048183,
        "timestamp": "2025-12-11T20:41:14.745249+00:00",
        "meta_object_name": "IONOSFERA-M 2",
        "meta_object_id": "2024-199B",
        "meta_epoch": "2025-12-11T14:18:52.047072",
        "meta_mean_motion": 14.22716826,
        "meta_eccentricity": 0.00016132,
        "meta_inclination": 98.7403,
        "meta_ra_of_asc_node": 215.3659,
        "meta_arg_of_pericenter": 112.1738,
        "meta_mean_anomaly": 247.9611,
        "meta_ephemeris_type": 0,
        "meta_classification_type": "U",
        "meta_norad_cat_id": 61736,
        "meta_element_set_no": 999,
        "meta_rev_at_epoch": 10415,
        "meta_bstar": 0.00013094707,
        "meta_mean_motion_dot": 2.49e-06,
        "meta_mean_motion_ddot": 0,
        "tle_line1": "1 61736U 24199B   25345.59643573  .00000249  00000+0  13095-3 0  9994",
        "tle_line2": "2 61736  98.7403 215.3659 0001613 112.1738 247.9611 14.22716826104151"
      },
      "geometry": {
        "type": "Point",
        "coordinates": [
          -101.77394854521935,
          -77.19463930360408
        ]
      }
    }
  ]
}